[{"OBJECT_NAME":"STARLINK-32886","OBJECT_ID":"2025-018B","EPOCH":"2026-03-09T23:26:01.663296","MEAN_MOTION":15.30193187,"ECCENTRICITY":7.123e-5,"INCLINATION":53.1599,"RA_OF_ASC_NODE":308.1696,"ARG_OF_PERICENTER":98.257,"MEAN_ANOMALY":261.8512,"EPHEMERIS_TYPE":0,"CLASSIFICATION_TYPE":"U","NORAD_CAT_ID":62807,"ELEMENT_SET_NO":999,"REV_AT_EPOCH":6322,"BSTAR":0.0011683562,"MEAN_MOTION_DOT":0.00034397,"MEAN_MOTION_DDOT":0},{"OBJECT_NAME":"TEVEL2-2","OBJECT_ID":"2025-052K","EPOCH":"2026-03-09T15:33:48.895776","MEAN_MOTION":15.30343745,"ECCENTRICITY":0.0004693,"INCLINATION":97.3987,"RA_OF_ASC_NODE":324.77,"ARG_OF_PERICENTER":105.793,"MEAN_ANOMALY":254.3828,"EPHEMERIS_TYPE":0,"CLASSIFICATION_TYPE":"U","NORAD_CAT_ID":63219,"ELEMENT_SET_NO":999,"REV_AT_EPOCH":5485,"BSTAR":0.00069428,"MEAN_MOTION_DOT":0.00020339,"MEAN_MOTION_DDOT":0}]
